KUIPER-00294            
1 68594U 26072X   26099.50711410  .00024641  00000+0  69623-3 0  9999
2 68594  51.8673 149.1185 0009887 135.7594 224.4184 15.36164003   812
KUIPER-00296            
1 68595U 26072Y   26099.50592729  .00016119  00000+0  45426-3 0  9996
2 68595  51.8694 149.1090 0008734 129.6166 230.5593 15.36547435   814
KUIPER-00297            
1 68596U 26072Z   26099.50754173  .00018132  00000+0  51708-3 0  9997
2 68596  51.8622 149.1220 0010385 136.1757 224.0055 15.36072717   812
KUIPER-00300            
1 68597U 26072AA  26099.50522254  .00016797  00000+0  47020-3 0  9998
2 68597  51.8667 149.1055 0008297 129.8474 230.3243 15.36728940   817
KUIPER-00301            
1 68598U 26072AB  26099.50624668  .00018553  00000+0  52341-3 0  9995
2 68598  51.8646 149.1136 0008968 132.6902 227.4841 15.36405426   810
KUIPER-00304            
1 68599U 26072AC  26099.44148317  .00019925  00000+0  56272-3 0  9992
2 68599  51.8660 149.4287 0009659 132.2113 227.9694 15.36315237   805
KUIPER-00317            
1 68600U 26072AD  26099.50562237  .00023615  00000+0  65793-3 0  9992
2 68600  51.8680 149.1085 0008709 124.9968 235.1837 15.36638039   813
KUIPER-00320            
1 68601U 26072AE  26099.50837948  .00018603  00000+0  53417-3 0  9998
2 68601  51.8599 149.1270 0011369 138.2508 221.9347 15.35827421   816
STP-S29A OBJECT A       
1 68627U 26074A   26100.28021921  .00009998  00000+0  42984-3 0  9996
2 68627  60.0172  78.6513 0015882 305.7921  54.1683 15.23145132   439
STP-S29A OBJECT B       
1 68628U 26074B   26100.28000112  .00007345  00000+0  31818-3 0  9994
2 68628  60.0220  78.6575 0014213 308.5279  51.4526 15.23261715   427
STP-S29A OBJECT C       
1 68629U 26074C   26100.27925962  .00012249  00000+0  51527-3 0  9991
2 68629  60.0210  78.6525 0017559 315.5564  44.4106 15.23674964   434
STP-S29A OBJECT D       
1 68630U 26074D   26100.14744440  .00004972  00000+0  21459-3 0  9994
2 68630  60.0212  79.1531 0015417 319.9997  39.9946 15.23991310   405
STP-S29A OBJECT E       
1 68631U 26074E   26100.27863002  .00005581  00000+0  23926-3 0  9993
2 68631  60.0207  78.6485 0016018 320.2827  39.7079 15.24007286   436
